GLOBALSTAR M045         
1 25676U 99019A   24364.93967633 -.00000092  00000+0  17347-4 0  9996
2 25676  51.9981  67.6584 0000625 171.3358 359.4242 12.27053901172614
GLOBALSTAR M019         
1 25677U 99019B   24364.90651714 -.00000071  00000+0  19635-3 0  9992
2 25677  51.9852 186.2065 0001366  45.3127 102.8541 12.13871912164585
GLOBALSTAR M044         
1 25678U 99019C   24364.89873442 -.00000033  00000+0  70087-3 0  9991
2 25678  51.9962 116.4095 0007339  81.3970  57.7200 11.90246641151167
GLOBALSTAR M042         
1 25679U 99019D   24364.86110778 -.00000069  00000+0  21803-3 0  9996
2 25679  51.9984 168.9629 0001929 327.9784 183.9220 12.22075909164552
GLOBALSTAR M025         
1 25770U 99031A   24364.96872473 -.00000053  00000+0  44029-3 0  9998
2 25770  51.9774 191.2783 0001142 160.6810   9.9953 11.22558434462706
GLOBALSTAR M049         
1 25771U 99031B   24364.92161470 -.00000038  00000+0  93141-3 0  9995
2 25771  51.9841 217.6452 0004672  86.9069 273.2262 11.12112043 98597
GLOBALSTAR M047         
1 25772U 99031C   24364.95173984 -.00000062  00000+0  20797-3 0  9996
2 25772  51.9809 230.7162 0016172 336.7269  23.2803 11.31925941451948
GLOBALSTAR M052         
1 25773U 99031D   24364.64797675 -.00000034  00000+0  10855-2 0  9994
2 25773  51.9897 329.3250 0002223 257.6258 273.4364 11.15056382459596
